H1 CPF 01  gfz 2022 05 16 12  6362 tandemx   
H2 1003001  6202 36605    2022 05 16 12 59 42 2022 05 21 00 00 42   120 1 1  0 0 0
H9
10 0 59719  82062.000000  0    1311443.044  -1176723.336  -6666361.655
10 0 59719  82182.000000  0    1537767.313  -2028485.995  -6408119.575
10 0 59719  82302.000000  0    1722815.081  -2848698.371  -6038042.961
10 0 59719  82422.000000  0    1864040.505  -3622365.281  -5562512.343
10 0 59719  82542.000000  0    1959904.203  -4335233.051  -4989745.887
10 0 59719  82662.000000  0    2009887.140  -4974053.501  -4329666.913
10 0 59719  82782.000000  0    2014483.807  -5526834.373  -3593743.309
10 0 59719  82902.000000  0    1975174.131  -5983073.503  -2794797.732
10 0 59719  83022.000000  0    1894373.766  -6333969.773  -1946790.116
10 0 59719  83142.000000  0    1775363.818  -6572603.778  -1064574.980
10 0 59719  83262.000000  0    1622202.570  -6694085.729   -163640.071
10 0 59719  83382.000000  0    1439620.133  -6695663.225    740172.618
10 0 59719  83502.000000  0    1232898.046  -6576787.185   1630951.643
10 0 59719  83622.000000  0    1007737.304  -6339134.629   2493006.940
10 0 59719  83742.000000  0     770118.581  -5986583.253   3311155.364
10 0 59719  83862.000000  0     526156.712  -5525142.931   4070994.700
10 0 59719  83982.000000  0     281955.080  -4962845.759   4759161.140
10 0 59719  84102.000000  0      43462.642  -4309596.909   5363566.126
10 0 59719  84222.000000  0    -183662.403  -3576990.020   5873607.556
10 0 59719  84342.000000  0    -394179.003  -2778091.332   6280352.374
10 0 59719  84462.000000  0    -583378.076  -1927198.809   6576685.703
10 0 59719  84582.000000  0    -747182.972  -1039583.179   6757428.566
10 0 59719  84702.000000  0    -882233.951   -131212.191   6819424.345
10 0 59719  84822.000000  0    -985955.683    781537.689   6761591.011
10 0 59719  84942.000000  0   -1056605.725   1682176.391   6584938.552
10 0 59719  85062.000000  0   -1093303.431   2554397.549   6292552.249
10 0 59719  85182.000000  0   -1096039.648   3382373.766   5889542.227
10 0 59719  85302.000000  0   -1065666.939   4151045.814   5382959.160
10 0 59719  85422.000000  0   -1003869.493   4846400.199   4781676.892
10 0 59719  85542.000000  0    -913114.859   5455731.947   4096242.911
10 0 59719  85662.000000  0    -796586.594   5967884.675   3338696.207
10 0 59719  85782.000000  0    -658101.362   6373464.336   2522360.033
10 0 59719  85902.000000  0    -502010.576   6665024.249   1661604.992
10 0 59719  86022.000000  0    -333087.466   6837209.185    771590.454
10 0 59719  86142.000000  0    -156404.472   6886859.325   -132008.775
10 0 59719  86262.000000  0      22796.500   6813071.607  -1033286.834
10 0 59719  86382.000000  0     199237.787   6617214.173  -1916397.202
99
